ONEWEB-0199             
1 48234U 21031AA  25068.94297120  .00000113  00000+0  26908-3 0  9995
2 48234  87.9063  21.9972 0001970  84.0361 276.0993 13.14503028187273
ONEWEB-0203             
1 48235U 21031AB  25068.85733736  .00000162  00000+0  40211-3 0  9991
2 48235  87.9066  22.0165 0002265  81.2672 278.8714 13.14504277187273
ONEWEB-0197             
1 48236U 21031AC  25068.90887358 -.00000071  00000+0 -22612-3 0  9994
2 48236  87.9061  22.0172 0001632  88.5419 271.5898 13.14500729187195
ONEWEB-0194             
1 48237U 21031AD  25068.88746333 -.00000144  00000+0 -42208-3 0  9993
2 48237  87.9065  22.0163 0002152  83.8745 276.2630 13.14504030187362
ONEWEB-0193             
1 48238U 21031AE  25068.82720378 -.00000142  00000+0 -41621-3 0  9995
2 48238  87.9062  22.0364 0002008  77.7756 282.3599 13.14501357187302
ONEWEB-0191             
1 48239U 21031AF  25068.91442643  .00000064  00000+0  13733-3 0  9996
2 48239  87.9059  21.9947 0001956  77.6538 282.4811 13.14503519187177
ONEWEB-0195             
1 48240U 21031AG  25068.89142500 -.00000215  00000+0 -61557-3 0  9991
2 48240  87.9059  21.9971 0001915  67.4382 292.6950 13.14504498187157
ONEWEB-0201             
1 48241U 21031AH  25068.88031917 -.00000173  00000+0 -50147-3 0  9996
2 48241  87.9064  22.0427 0001780  76.1315 284.0013 13.14504534187386
